NORAD_CAT_ID,OBJECT_NAME,OBJECT_TYPE,EPOCH,MEAN_MOTION,ECCENTRICITY,INCLINATION,RA_OF_ASC_NODE,ARG_OF_PERICENTER,MEAN_ANOMALY,BSTAR,MEAN_MOTION_DOT,MEAN_MOTION_DDOT,TLE_LINE0,TLE_LINE1,TLE_LINE2,SEMIMAJOR_AXIS,PERIOD,APOGEE,PERIGEE,DECAYED
52499.0,STARLINK-3894,PAYLOAD,2023-02-13 16:38:39,15.08848557,7.73e-05,53.2154,36.9836,93.3013,266.8068,0.00098559,0.00015436,0.0,0 STARLINK-3894,1 52499U 22049BA  23044.69351564  .00015436  00000-0  98559-3 0  9996,2 52499  53.2154  36.9836 0000773  93.3013 266.8068 15.08848557 43477,6917.854,95.437,540.254,539.184,0.0
52499.0,STARLINK-3894,PAYLOAD,2023-02-14 05:21:45,15.08844867,0.0001519,53.215,34.6101,82.0942,278.0223,0.00064659,0.00010019,0.0,0 STARLINK-3894,1 52499U 22049BA  23045.22344007  .00010019  00000-0  64659-3 0  9996,2 52499  53.2150  34.6101 0001519  82.0942 278.0223 15.08844867 43555,6917.866,95.437,540.781,538.68,0.0
52499.0,STARLINK-3894,PAYLOAD,2023-02-14 11:43:17,15.08843473,0.0001431,53.2147,33.4181,89.244,270.8716,0.00053356,8.215e-05,0.0,0 STARLINK-3894,1 52499U 22049BA  23045.48839969  .00008215  00000-0  53356-3 0  9997,2 52499  53.2147  33.4181 0001431  89.2440 270.8716 15.08843473 43437,6917.87,95.437,540.725,538.745,0.0
52499.0,STARLINK-3894,PAYLOAD,2023-02-15 16:20:14,15.08842983,0.0001446,53.2145,28.066,95.0382,265.0775,0.0002679,3.979e-05,0.0,0 STARLINK-3894,1 52499U 22049BA  23046.68072232  .00003979  00000-0  26790-3 0  9996,2 52499  53.2145  28.0660 0001446  95.0382 265.0775 15.08842983 43776,6917.871,95.437,540.737,538.736,0.0
52499.0,STARLINK-3894,PAYLOAD,2023-02-16 05:03:18,15.08874984,0.0001647,53.2154,25.6866,116.0824,244.0338,0.0011313,0.0001778,0.0,0 STARLINK-3894,1 52499U 22049BA  23047.21063346  .00017780  00000-0  11313-2 0  9991,2 52499  53.2154  25.6866 0001647 116.0824 244.0338 15.08874984 43852,6917.773,95.435,540.778,538.499,0.0
52499.0,STARLINK-3894,PAYLOAD,2023-02-16 09:49:27,15.08892254,0.0001205,53.2151,24.7942,104.7465,255.3661,0.0017048,0.00026987,0.0,0 STARLINK-3894,1 52499U 22049BA  23047.40934760  .00026987  00000-0  17048-2 0  9999,2 52499  53.2151  24.7942 0001205 104.7465 255.3661 15.08892254 43729,6917.721,95.434,540.419,538.752,0.0
52499.0,STARLINK-3894,PAYLOAD,2023-02-17 04:54:06,15.08835202,0.0001159,53.2159,21.2287,124.1522,235.9581,0.0016714,0.00026409,0.0,0 STARLINK-3894,1 52499U 22049BA  23048.20424089  .00026409  00000-0  16714-2 0  9994,2 52499  53.2159  21.2287 0001159 124.1522 235.9581 15.08835202 44006,6917.895,95.438,540.562,538.958,0.0
52499.0,STARLINK-3894,PAYLOAD,2023-02-17 09:40:15,15.08857557,0.0001243,53.2159,20.335,120.1927,239.9188,0.0023135,0.00036741,0.0,0 STARLINK-3894,1 52499U 22049BA  23048.40295928  .00036741  00000-0  23135-2 0  9999,2 52499  53.2159  20.3350 0001243 120.1927 239.9188 15.08857557 43874,6917.827,95.436,540.552,538.832,0.0
52499.0,STARLINK-3894,PAYLOAD,2023-02-18 04:44:54,15.0881938,9.84e-05,53.2148,16.7648,96.6611,263.4493,0.00089733,0.00014014,0.0,0 STARLINK-3894,1 52499U 22049BA  23049.19785819  .00014014  00000-0  89733-3 0  9995,2 52499  53.2148  16.7648 0000984  96.6611 263.4493 15.08819380 44154,6917.943,95.439,540.489,539.128,0.0
52499.0,STARLINK-3894,PAYLOAD,2023-02-18 14:17:14,15.0883776,0.0001073,53.2168,14.9835,111.59,248.5207,0.0015025,0.00023704,0.0,0 STARLINK-3894,1 52499U 22049BA  23049.59530159  .00023704  00000-0  15025-2 0  9992,2 52499  53.2168  14.9835 0001073 111.5900 248.5207 15.08837760 44050,6917.887,95.438,540.495,539.01,0.0
52499.0,STARLINK-3894,PAYLOAD,2023-02-18 22:14:09,15.08861845,0.0001003,53.217,13.4964,114.3252,245.7845,0.0017624,0.00027889,0.0,0 STARLINK-3894,1 52499U 22049BA  23049.92649787  .00027889  00000-0  17624-2 0  9992,2 52499  53.2170  13.4964 0001003 114.3252 245.7845 15.08861845 44265,6917.814,95.436,540.372,538.985,0.0
52499.0,STARLINK-3894,PAYLOAD,2023-02-19 14:07:59,15.08864946,0.0001564,53.2169,10.5176,78.7748,281.342,7.1417e-05,8.49e-06,0.0,0 STARLINK-3894,1 52499U 22049BA  23050.58888814  .00000849  00000-0  71417-4 0  9991,2 52499  53.2169  10.5176 0001564  78.7748 281.3420 15.08864946 44362,6917.804,95.436,540.751,538.587,0.0
52499.0,STARLINK-3894,PAYLOAD,2023-02-20 06:01:51,15.08857016,0.0001187,53.2161,7.5481,89.6884,270.4245,0.0016685,0.00026378,0.0,0 STARLINK-3894,1 52499U 22049BA  23051.25128717  .00026378  00000-0  16685-2 0  9994,2 52499  53.2161   7.5481 0001187  89.6884 270.4245 15.08857016 44467,6917.828,95.436,540.515,538.872,0.0
52499.0,STARLINK-3894,PAYLOAD,2023-02-20 13:58:47,15.08852751,0.0001712,53.2156,6.0613,79.5067,280.6118,0.0014041,0.00022137,0.0,0 STARLINK-3894,1 52499U 22049BA  23051.58248957  .00022137  00000-0  14041-2 0  9992,2 52499  53.2156   6.0613 0001712  79.5067 280.6118 15.08852751 44516,6917.841,95.437,540.891,538.522,0.0
52499.0,STARLINK-3894,PAYLOAD,2023-02-20 23:31:05,15.08849065,0.0001255,53.2145,4.2767,84.3708,275.7427,0.0012637,0.00019886,0.0,0 STARLINK-3894,1 52499U 22049BA  23051.97992841  .00019886  00000-0  12637-2 0  9999,2 52499  53.2145   4.2767 0001255  84.3708 275.7427 15.08849065 44570,6917.853,95.437,540.586,538.849,0.0
52499.0,STARLINK-3894,PAYLOAD,2023-02-21 13:49:33,15.08852764,0.0001256,53.2179,1.5965,101.4777,258.6357,0.00082316,0.00012841,0.0,0 STARLINK-3894,1 52499U 22049BA  23052.57608485  .00012841  00000-0  82316-3 0  9990,2 52499  53.2179   1.5965 0001256 101.4777 258.6357 15.08852764 44667,6917.841,95.437,540.575,538.837,0.0
52499.0,STARLINK-3894,PAYLOAD,2023-02-22 02:32:38,15.08854723,0.0001225,53.2156,359.2202,100.7774,259.3356,0.0005494,8.47e-05,0.0,0 STARLINK-3894,1 52499U 22049BA  23053.10600274  .00008470  00000-0  54940-3 0  9993,2 52499  53.2156 359.2202 0001225 100.7774 259.3356 15.08854723 44747,6917.835,95.437,540.548,538.853,0.0
52499.0,STARLINK-3894,PAYLOAD,2023-02-22 04:08:01,15.08858727,0.0001278,53.2154,358.9233,94.0891,266.0247,0.00059262,9.161e-05,0.0,0 STARLINK-3894,1 52499U 22049BA  23053.17224147  .00009161  00000-0  59262-3 0  9991,2 52499  53.2154 358.9233 0001278  94.0891 266.0247 15.08858727 44593,6917.823,95.436,540.572,538.804,0.0
52499.0,STARLINK-3894,PAYLOAD,2023-02-22 15:15:44,15.08834964,0.0001317,53.2161,356.8441,87.2002,272.9141,-0.0001173,-2.154e-05,0.0,0 STARLINK-3894,1 52499U 22049BA  23053.63592692 -.00002154  00000-0 -11730-3 0  9990,2 52499  53.2161 356.8441 0001317  87.2002 272.9141 15.08834964 44823,6917.896,95.438,540.672,538.85,0.0
52499.0,STARLINK-3894,PAYLOAD,2023-02-23 02:23:26,15.08828043,0.0001472,53.2159,354.762,78.4074,281.7083,-1.0268e-05,-4.51e-06,0.0,0 STARLINK-3894,1 52499U 22049BA  23054.09961572 -.00000451  00000-0 -10268-4 0  9992,2 52499  53.2159 354.7620 0001472  78.4074 281.7083 15.08828043 44890,6917.917,95.438,540.8,538.764,0.0
52499.0,STARLINK-3894,PAYLOAD,2023-02-23 19:52:40,15.08853939,0.0001181,53.2154,351.4903,73.3927,286.7194,0.00066333,0.00010289,0.0,0 STARLINK-3894,1 52499U 22049BA  23054.82825154  .00010289  00000-0  66333-3 0  9999,2 52499  53.2154 351.4903 0001181  73.3927 286.7194 15.08853939 44846,6917.838,95.437,540.52,538.886,0.0
52499.0,STARLINK-3894,PAYLOAD,2023-02-24 00:38:50,15.08875651,0.0001261,53.2159,350.5986,74.9529,285.1602,0.001815,0.00028744,0.0,0 STARLINK-3894,1 52499U 22049BA  23055.02697050  .00028744  00000-0  18150-2 0  9992,2 52499  53.2159 350.5986 0001261  74.9529 285.1602 15.08875651 45030,6917.771,95.435,540.509,538.764,0.0
52499.0,STARLINK-3894,PAYLOAD,2023-02-24 07:00:21,15.08897891,0.0001202,53.2155,349.4085,73.3779,286.7345,0.0019906,0.00031585,0.0,0 STARLINK-3894,1 52499U 22049BA  23055.29192068  .00031585  00000-0  19906-2 0  9997,2 52499  53.2155 349.4085 0001202  73.3779 286.7345 15.08897891 44915,6917.703,95.434,540.4,538.737,0.0
52499.0,STARLINK-3894,PAYLOAD,2023-02-24 19:43:27,15.08840965,0.00011,53.2158,347.0297,94.8703,265.2415,0.0003686,5.583e-05,0.0,0 STARLINK-3894,1 52499U 22049BA  23055.82184778  .00005583  00000-0  36860-3 0  9993,2 52499  53.2158 347.0297 0001100  94.8703 265.2415 15.08840965 44997,6917.877,95.437,540.503,538.981,0.0
52499.0,STARLINK-3894,PAYLOAD,2023-02-24 22:54:14,15.08833633,0.0001028,53.2159,346.4351,90.137,269.974,0.00056448,8.706e-05,0.0,0 STARLINK-3894,1 52499U 22049BA  23055.95432945  .00008706  00000-0  56448-3 0  9993,2 52499  53.2159 346.4351 0001028  90.1370 269.9740 15.08833633 45177,6917.9,95.438,540.476,539.054,0.0
52499.0,STARLINK-3894,PAYLOAD,2023-02-25 14:48:05,15.08838716,0.0001059,53.2159,343.4606,98.8111,261.3001,0.0009522,0.00014898,0.0,0 STARLINK-3894,1 52499U 22049BA  23056.61673344  .00014898  00000-0  95220-3 0  9997,2 52499  53.2159 343.4606 0001059  98.8111 261.3001 15.08838716 45116,6917.884,95.438,540.482,539.017,0.0
52499.0,STARLINK-3894,PAYLOAD,2023-02-26 05:06:33,15.08870283,0.0001097,53.2158,340.7843,100.0526,260.059,0.0014599,0.00023042,0.0,0 STARLINK-3894,1 52499U 22049BA  23057.21288681  .00023042  00000-0  14599-2 0  9990,2 52499  53.2158 340.7843 0001097 100.0526 260.0590 15.08870283 45367,6917.788,95.436,540.412,538.894,0.0
52499.0,STARLINK-3894,PAYLOAD,2023-02-27 03:21:56,15.0887508,0.0001224,53.2151,336.6216,98.2332,261.8799,0.0010608,0.00016651,0.0,0 STARLINK-3894,1 52499U 22049BA  23058.14023802  .00016651  00000-0  10608-2 0  9990,2 52499  53.2151 336.6216 0001224  98.2332 261.8799 15.08875080 45509,6917.773,95.435,540.485,538.791,0.0
52499.0,STARLINK-3894,PAYLOAD,2023-02-28 03:12:42,15.08907667,0.0001262,53.2152,332.1606,105.7547,254.3584,0.0025989,0.00041394,0.0,0 STARLINK-3894,1 52499U 22049BA  23059.13382064  .00041394  00000-0  25989-2 0  9998,2 52499  53.2152 332.1606 0001262 105.7547 254.3584 15.08907667 45650,6917.674,95.433,540.412,538.666,0.0
52499.0,STARLINK-3894,PAYLOAD,2023-02-28 22:17:21,15.08810086,8.15e-05,53.2146,328.592,122.7969,237.3102,0.0011347,0.00017802,0.0,0 STARLINK-3894,1 52499U 22049BA  23059.92872124  .00017802  00000-0  11347-2 0  9996,2 52499  53.2146 328.5920 0000815 122.7969 237.3102 15.08810086 45612,6917.972,95.439,540.401,539.273,0.0
